OBJECT_NAME,OBJECT_ID,EPOCH,MEAN_MOTION,ECCENTRICITY,INCLINATION,RA_OF_ASC_NODE,ARG_OF_PERICENTER,MEAN_ANOMALY,EPHEMERIS_TYPE,CLASSIFICATION_TYPE,NORAD_CAT_ID,ELEMENT_SET_NO,REV_AT_EPOCH,BSTAR,MEAN_MOTION_DOT,MEAN_MOTION_DDOT
ONEWEB-0053,2020-008AC,2026-07-18T12:09:26.491104,13.10375088,.00014291,87.8817,30.0409,78.3159,281.8129,0,U,45157,999,31201,.89824853E-3,.326E-5,0
ONEWEB-0054,2020-008AD,2026-07-18T02:01:01.014528,13.10372785,.00018518,87.8816,30.1108,86.3398,273.7941,0,U,45158,999,31207,-.60335577E-3,-.198E-5,0
ONEWEB-0056,2020-008AE,2026-07-18T12:19:01.130592,13.10374317,.00020671,87.8824,30.0189,83.5180,276.6183,0,U,45159,999,31228,.1682748E-2,.6E-5,0
ONEWEB-0057,2020-008AF,2026-07-18T12:43:51.369024,13.10369569,.00014672,87.8816,30.0270,74.5313,285.5976,0,U,45160,999,31245,.10531548E-2,.38E-5,0
ONEWEB-0058,2020-008AG,2026-07-18T12:24:38.886336,13.10468681,.00018183,87.8812,30.0326,98.1878,261.9455,0,U,45161,999,31252,.32917041E-1,.11534E-3,0
ONEWEB-0059,2020-008AH,2026-07-18T06:49:35.324832,13.10374886,.0001582,87.8817,30.0794,88.2690,271.8619,0,U,45162,999,31239,.14078945E-2,.504E-5,0
ONEWEB-0062,2020-008AJ,2026-07-18T12:53:13.715520,13.10369084,.00020888,87.8818,30.0188,94.2087,265.9279,0,U,45163,999,31229,.2112713E-3,.86E-6,0
ONEWEB-0065,2020-008AK,2026-07-18T11:52:06.747456,13.10375223,.00017623,87.8823,30.0351,78.1824,281.9501,0,U,45164,999,31198,-.11833626E-2,-.4E-5,0
ONEWEB-0066,2020-020A,2026-07-18T10:16:48.539712,13.11419587,.00017393,87.8883,14.8491,95.3313,264.8013,0,U,45424,999,30677,-.99112484E-3,-.339E-5,0
ONEWEB-0067,2020-020B,2026-07-18T00:11:56.226624,13.11426811,.00017089,87.8907,14.8610,86.7762,273.3561,0,U,45425,999,30677,.10255604E-2,.376E-5,0
ONEWEB-0080,2020-020C,2026-07-18T11:10:47.465760,13.11417721,.00020884,87.8898,14.8415,98.0703,262.0662,0,U,45426,999,30680,.10353772E-2,.38E-5,0
ONEWEB-0090,2020-020D,2026-07-18T10:02:24.535392,13.11415674,.00019309,87.8896,14.8552,91.7701,268.3648,0,U,45427,999,30676,.21056545E-3,.87E-6,0
ONEWEB-0061,2020-020E,2026-07-18T10:48:23.305536,13.11418599,.00018278,87.8893,14.8330,92.3513,267.7824,0,U,45428,999,30672,-.90961279E-3,-.31E-5,0
ONEWEB-0081,2020-020F,2026-07-18T04:52:07.736448,13.11416321,.00016231,87.8889,14.8914,91.6252,268.5062,0,U,45429,999,30680,-.12448917E-2,-.428E-5,0
ONEWEB-0069,2020-020G,2026-07-18T04:54:45.428544,13.11418168,.00016441,87.8892,14.8945,94.6112,265.5204,0,U,45430,999,30673,-.14976974E-2,-.518E-5,0
ONEWEB-0031,2020-020H,2026-07-18T11:15:28.827360,13.11419422,.00020068,87.8882,14.8444,95.0937,265.0420,0,U,45431,999,30675,.12911344E-2,.47E-5,0
ONEWEB-0027,2020-020J,2026-07-18T04:00:32.649120,13.17651072,.00022914,87.9149,359.7024,92.4712,267.6682,0,U,45432,999,31043,-.4165245E-3,-.149E-5,0
ONEWEB-0064,2020-020K,2026-07-18T11:13:01.288128,13.11417901,.00020117,87.8888,14.8380,91.7380,268.3978,0,U,45433,999,30678,.83277563E-3,.308E-5,0
ONEWEB-0018,2020-020L,2026-07-18T11:59:11.508000,13.11415209,.00016918,87.8889,14.8311,102.6637,257.4680,0,U,45434,999,30673,-.29404514E-3,-.92E-6,0
ONEWEB-0083,2020-020M,2026-07-18T11:44:57.366240,13.11415669,.00018987,87.8892,14.8286,93.4116,266.7229,0,U,45435,999,30677,.88415172E-3,.326E-5,0
ONEWEB-0095,2020-020N,2026-07-18T06:03:09.133920,13.11415300,.00022479,87.8894,14.8843,76.2506,283.8872,0,U,45436,999,30674,.13187371E-2,.48E-5,0
ONEWEB-0092,2020-020P,2026-07-18T10:26:49.979616,13.11413254,.00017122,87.8893,14.8389,97.6890,262.4432,0,U,45437,999,30688,-.14335433E-2,-.495E-5,0
ONEWEB-0085,2020-020Q,2026-07-18T11:44:33.443808,13.11416041,.00018596,87.8889,14.8334,90.2098,269.9243,0,U,45438,999,30677,.89561354E-3,.33E-5,0
ONEWEB-0096,2020-020R,2026-07-18T11:47:11.747616,13.11414855,.00019178,87.8892,14.8306,88.2225,271.9122,0,U,45439,999,30676,.63779834E-3,.239E-5,0
ONEWEB-0037,2020-020S,2026-07-18T10:35:08.535264,13.11415625,.00019784,87.8903,14.8136,86.9189,273.2165,0,U,45440,999,30679,-.16487564E-2,-.572E-5,0
ONEWEB-0042,2020-020T,2026-07-18T11:32:21.599520,13.11416734,.00017571,87.8892,14.8293,90.8894,269.2435,0,U,45441,999,30676,.15309174E-2,.555E-5,0
ONEWEB-0098,2020-020U,2026-07-18T05:56:50.933472,13.11415378,.00019146,87.8890,14.8844,93.2508,266.8839,0,U,45442,999,30671,.15985542E-2,.579E-5,0
ONEWEB-0055,2020-020V,2026-07-18T10:55:43.700160,13.11418610,.00019244,87.8895,14.8420,92.1693,267.9656,0,U,45443,999,30671,-.34625353E-3,-.11E-5,0
ONEWEB-0093,2020-020W,2026-07-17T23:39:19.454976,13.10894374,.00015014,87.8894,14.9328,90.8076,269.3223,0,U,45444,999,30671,-.15095799E-2,-.518E-5,0
ONEWEB-0029,2020-020X,2026-07-18T00:06:42.243840,13.11417027,.00015945,87.8885,14.9318,93.8897,266.2413,0,U,45445,999,30669,.74165728E-3,.276E-5,0
