ONEWEB-0053             
1 45157U 20008AC  26199.50655661  .00000326  00000+0  89825-3 0  9998
2 45157  87.8817  30.0409 0001429  78.3159 281.8129 13.10375088312012
ONEWEB-0054             
1 45158U 20008AD  26199.08403952 -.00000198  00000+0 -60336-3 0  9991
2 45158  87.8816  30.1108 0001851  86.3398 273.7941 13.10372785312071
ONEWEB-0056             
1 45159U 20008AE  26199.51320753  .00000600  00000+0  16827-2 0  9998
2 45159  87.8824  30.0189 0002067  83.5180 276.6183 13.10374317312283
ONEWEB-0057             
1 45160U 20008AF  26199.53045566  .00000380  00000+0  10532-2 0  9990
2 45160  87.8816  30.0270 0001467  74.5313 285.5976 13.10369569312459
ONEWEB-0058             
1 45161U 20008AG  26199.51711674  .00011534  00000+0  32917-1 0  9992
2 45161  87.8812  30.0326 0001818  98.1878 261.9455 13.10468681312529
ONEWEB-0059             
1 45162U 20008AH  26199.28443663  .00000504  00000+0  14079-2 0  9992
2 45162  87.8817  30.0794 0001582  88.2690 271.8619 13.10374886312394
ONEWEB-0062             
1 45163U 20008AJ  26199.53696430  .00000086  00000+0  21127-3 0  9991
2 45163  87.8818  30.0188 0002088  94.2087 265.9279 13.10369084312291
ONEWEB-0065             
1 45164U 20008AK  26199.49452254 -.00000400  00000+0 -11834-2 0  9996
2 45164  87.8823  30.0351 0001762  78.1824 281.9501 13.10375223311981
ONEWEB-0066             
1 45424U 20020A   26199.42833958 -.00000339  00000+0 -99112-3 0  9993
2 45424  87.8883  14.8491 0001739  95.3313 264.8013 13.11419587306771
ONEWEB-0067             
1 45425U 20020B   26199.00828966  .00000376  00000+0  10256-2 0  9991
2 45425  87.8907  14.8610 0001708  86.7762 273.3561 13.11426811306771
ONEWEB-0080             
1 45426U 20020C   26199.46582715  .00000380  00000+0  10354-2 0  9995
2 45426  87.8898  14.8415 0002088  98.0703 262.0662 13.11417721306808
ONEWEB-0090             
1 45427U 20020D   26199.41833953  .00000087  00000+0  21057-3 0  9991
2 45427  87.8896  14.8552 0001930  91.7701 268.3648 13.11415674306765
ONEWEB-0061             
1 45428U 20020E   26199.45026974 -.00000310  00000+0 -90961-3 0  9994
2 45428  87.8893  14.8330 0001827  92.3513 267.7824 13.11418599306724
ONEWEB-0081             
1 45429U 20020F   26199.20286732 -.00000428  00000+0 -12449-2 0  9992
2 45429  87.8889  14.8914 0001623  91.6252 268.5062 13.11416321306807
ONEWEB-0069             
1 45430U 20020G   26199.20469246 -.00000518  00000+0 -14977-2 0  9995
2 45430  87.8892  14.8945 0001644  94.6112 265.5204 13.11418168306736
ONEWEB-0031             
1 45431U 20020H   26199.46908365  .00000470  00000+0  12911-2 0  9995
2 45431  87.8882  14.8444 0002006  95.0937 265.0420 13.11419422306754
ONEWEB-0027             
1 45432U 20020J   26199.16704455 -.00000149  00000+0 -41652-3 0  9997
2 45432  87.9149 359.7024 0002291  92.4712 267.6682 13.17651072310438
ONEWEB-0064             
1 45433U 20020K   26199.46737602  .00000308  00000+0  83278-3 0  9996
2 45433  87.8888  14.8380 0002011  91.7380 268.3978 13.11417901306789
ONEWEB-0018             
1 45434U 20020L   26199.49943875 -.00000092  00000+0 -29405-3 0  9995
2 45434  87.8889  14.8311 0001691 102.6637 257.4680 13.11415209306738
ONEWEB-0083             
1 45435U 20020M   26199.48955285  .00000326  00000+0  88415-3 0  9997
2 45435  87.8892  14.8286 0001898  93.4116 266.7229 13.11415669306778
ONEWEB-0095             
1 45436U 20020N   26199.25218905  .00000480  00000+0  13187-2 0  9998
2 45436  87.8894  14.8843 0002247  76.2506 283.8872 13.11415300306744
ONEWEB-0092             
1 45437U 20020P   26199.43530069 -.00000495  00000+0 -14335-2 0  9991
2 45437  87.8893  14.8389 0001712  97.6890 262.4432 13.11413254306884
ONEWEB-0085             
1 45438U 20020Q   26199.48927597  .00000330  00000+0  89561-3 0  9993
2 45438  87.8889  14.8334 0001859  90.2098 269.9243 13.11416041306778
ONEWEB-0096             
1 45439U 20020R   26199.49110819  .00000239  00000+0  63780-3 0  9999
2 45439  87.8892  14.8306 0001917  88.2225 271.9122 13.11414855306765
ONEWEB-0037             
1 45440U 20020S   26199.44107101 -.00000572  00000+0 -16488-2 0  9990
2 45440  87.8903  14.8136 0001978  86.9189 273.2165 13.11415625306793
ONEWEB-0042             
1 45441U 20020T   26199.48080555  .00000555  00000+0  15309-2 0  9998
2 45441  87.8892  14.8293 0001757  90.8894 269.2435 13.11416734306761
ONEWEB-0098             
1 45442U 20020U   26199.24781173  .00000579  00000+0  15986-2 0  9994
2 45442  87.8890  14.8844 0001914  93.2508 266.8839 13.11415378306715
ONEWEB-0055             
1 45443U 20020V   26199.45536690 -.00000110  00000+0 -34625-3 0  9995
2 45443  87.8895  14.8420 0001924  92.1693 267.9656 13.11418610306716
ONEWEB-0093             
1 45444U 20020W   26198.98564184 -.00000518  00000+0 -15096-2 0  9994
2 45444  87.8894  14.9328 0001501  90.8076 269.3223 13.10894374306715
ONEWEB-0029             
1 45445U 20020X   26199.00465560  .00000276  00000+0  74166-3 0  9990
2 45445  87.8885  14.9318 0001594  93.8897 266.2413 13.11417027306692
